STARLINK-4011           
1 52615U 22052T   26040.25860105  .00000785  00000+0  67396-4 0  9993
2 52615  53.2176  51.7539 0001555  95.9902 264.1267 15.08834303206488
STARLINK-3996           
1 52617U 22052V   26040.26181204  .00000544  00000+0  52299-4 0  9991
2 52617  53.2194  36.7359 0001772 107.1811 252.9376 15.08842853206697
STARLINK-3983           
1 52618U 22052W   26040.26549176 -.00001303  00000+0 -63780-4 0  9991
2 52618  53.2184  36.7199 0001318 101.4171 258.6969 15.08832201206698
STARLINK-3741           
1 52619U 22052X   26040.25813715 -.00000407  00000+0 -74879-5 0  9990
2 52619  53.2184  36.7422 0001356  93.6304 266.4843 15.08839165206694
STARLINK-3975           
1 52620U 22052Y   26040.25491979 -.00001126  00000+0 -52610-4 0  9993
2 52620  53.2185  51.7708 0001535 101.1763 258.9402 15.08852288206489
STARLINK-3984           
1 52621U 22052Z   26040.18453690  .00001088  00000+0  86412-4 0  9996
2 52621  53.2184  37.0831 0001389 104.2859 255.8288 15.08844426206685
STARLINK-4008           
1 52622U 22052AA  26040.28435812  .00001363  00000+0  10372-3 0  9991
2 52622  53.2180  51.6353 0001394  83.0794 277.0357 15.08840132206493
STARLINK-3986           
1 52623U 22052AB  26040.24710904  .00002445  00000+0  17169-3 0  9999
2 52623  53.2205  36.8012 0001417  89.2163 270.8992 15.08831467206692
STARLINK-3988           
1 52625U 22052AD  26040.24342301 -.00000116  00000+0  10808-4 0  9991
2 52625  53.2187  36.8204 0002039  94.4834 265.6391 15.08837990206692
STARLINK-3990           
1 52626U 22052AE  26040.25445961 -.00002576  00000+0 -14380-3 0  9990
2 52626  53.2187  36.7686 0001407  91.2085 268.9069 15.08838378206696
STARLINK-3992           
1 52627U 22052AF  26040.23237942  .00001032  00000+0  82948-4 0  9997
2 52627  53.2182  36.8728 0001393  93.1953 266.9199 15.08838234206704
STARLINK-4001           
1 52628U 22052AG  26040.28067858  .00000401  00000+0  43291-4 0  9997
2 52628  53.2173  51.6515 0001603  91.8566 268.2610 15.08840696206497
STARLINK-4022           
1 52629U 22052AH  26040.29128499 -.00000791  00000+0 -31605-4 0  9998
2 52629  53.2177  36.5687 0001578 123.1046 237.0098 15.08819361206700
STARLINK-3989           
1 52630U 22052AJ  26040.24116514 -.00201789  00000+0 -13576-1 0  9994
2 52630  53.2183  36.8459 0011798 103.2305 257.0003 15.07240252206693
STARLINK-3794           
1 52631U 22052AK  26040.29222906 -.00004726  00000+0 -27899-3 0  9990
2 52631  53.2188  36.6150 0001549  71.0509 289.0651 15.08846265206710
STARLINK-3995           
1 52632U 22052AL  26040.23605623  .00001298  00000+0  99618-4 0  9994
2 52632  53.2179  36.8548 0001348  86.1952 273.9195 15.08840240206701
