[{"OBJECT_NAME":"STARLINK-4011","OBJECT_ID":"2022-052T","EPOCH":"2026-02-09T06:12:23.130720","MEAN_MOTION":15.08834303,"ECCENTRICITY":0.00015552,"INCLINATION":53.2176,"RA_OF_ASC_NODE":51.7539,"ARG_OF_PERICENTER":95.9902,"MEAN_ANOMALY":264.1267,"EPHEMERIS_TYPE":0,"CLASSIFICATION_TYPE":"U","NORAD_CAT_ID":52615,"ELEMENT_SET_NO":999,"REV_AT_EPOCH":20648,"BSTAR":6.7396173e-5,"MEAN_MOTION_DOT":7.85e-6,"MEAN_MOTION_DDOT":0},{"OBJECT_NAME":"STARLINK-3996","OBJECT_ID":"2022-052V","EPOCH":"2026-02-09T06:17:00.560256","MEAN_MOTION":15.08842853,"ECCENTRICITY":0.00017729,"INCLINATION":53.2194,"RA_OF_ASC_NODE":36.7359,"ARG_OF_PERICENTER":107.1811,"MEAN_ANOMALY":252.9376,"EPHEMERIS_TYPE":0,"CLASSIFICATION_TYPE":"U","NORAD_CAT_ID":52617,"ELEMENT_SET_NO":999,"REV_AT_EPOCH":20669,"BSTAR":5.2299288e-5,"MEAN_MOTION_DOT":5.44e-6,"MEAN_MOTION_DDOT":0},{"OBJECT_NAME":"STARLINK-3983","OBJECT_ID":"2022-052W","EPOCH":"2026-02-09T06:22:18.488064","MEAN_MOTION":15.08832201,"ECCENTRICITY":0.00013187,"INCLINATION":53.2184,"RA_OF_ASC_NODE":36.7199,"ARG_OF_PERICENTER":101.4171,"MEAN_ANOMALY":258.6969,"EPHEMERIS_TYPE":0,"CLASSIFICATION_TYPE":"U","NORAD_CAT_ID":52618,"ELEMENT_SET_NO":999,"REV_AT_EPOCH":20669,"BSTAR":-6.3779925e-5,"MEAN_MOTION_DOT":-1.303e-5,"MEAN_MOTION_DDOT":0},{"OBJECT_NAME":"STARLINK-3741","OBJECT_ID":"2022-052X","EPOCH":"2026-02-09T06:11:43.049760","MEAN_MOTION":15.08839165,"ECCENTRICITY":0.00013567,"INCLINATION":53.2184,"RA_OF_ASC_NODE":36.7422,"ARG_OF_PERICENTER":93.6304,"MEAN_ANOMALY":266.4843,"EPHEMERIS_TYPE":0,"CLASSIFICATION_TYPE":"U","NORAD_CAT_ID":52619,"ELEMENT_SET_NO":999,"REV_AT_EPOCH":20669,"BSTAR":-7.487916e-6,"MEAN_MOTION_DOT":-4.07e-6,"MEAN_MOTION_DDOT":0},{"OBJECT_NAME":"STARLINK-3975","OBJECT_ID":"2022-052Y","EPOCH":"2026-02-09T06:07:05.069856","MEAN_MOTION":15.08852288,"ECCENTRICITY":0.00015355,"INCLINATION":53.2185,"RA_OF_ASC_NODE":51.7708,"ARG_OF_PERICENTER":101.1763,"MEAN_ANOMALY":258.9402,"EPHEMERIS_TYPE":0,"CLASSIFICATION_TYPE":"U","NORAD_CAT_ID":52620,"ELEMENT_SET_NO":999,"REV_AT_EPOCH":20648,"BSTAR":-5.2609858e-5,"MEAN_MOTION_DOT":-1.126e-5,"MEAN_MOTION_DDOT":0},{"OBJECT_NAME":"STARLINK-3984","OBJECT_ID":"2022-052Z","EPOCH":"2026-02-09T04:25:43.988160","MEAN_MOTION":15.08844426,"ECCENTRICITY":0.00013892,"INCLINATION":53.2184,"RA_OF_ASC_NODE":37.0831,"ARG_OF_PERICENTER":104.2859,"MEAN_ANOMALY":255.8288,"EPHEMERIS_TYPE":0,"CLASSIFICATION_TYPE":"U","NORAD_CAT_ID":52621,"ELEMENT_SET_NO":999,"REV_AT_EPOCH":20668,"BSTAR":8.6411953e-5,"MEAN_MOTION_DOT":1.088e-5,"MEAN_MOTION_DDOT":0},{"OBJECT_NAME":"STARLINK-4008","OBJECT_ID":"2022-052AA","EPOCH":"2026-02-09T06:49:28.541568","MEAN_MOTION":15.08840132,"ECCENTRICITY":0.00013942,"INCLINATION":53.218,"RA_OF_ASC_NODE":51.6353,"ARG_OF_PERICENTER":83.0794,"MEAN_ANOMALY":277.0357,"EPHEMERIS_TYPE":0,"CLASSIFICATION_TYPE":"U","NORAD_CAT_ID":52622,"ELEMENT_SET_NO":999,"REV_AT_EPOCH":20649,"BSTAR":0.00010371539,"MEAN_MOTION_DOT":1.363e-5,"MEAN_MOTION_DDOT":0},{"OBJECT_NAME":"STARLINK-3986","OBJECT_ID":"2022-052AB","EPOCH":"2026-02-09T05:55:50.221056","MEAN_MOTION":15.08831467,"ECCENTRICITY":0.00014173,"INCLINATION":53.2205,"RA_OF_ASC_NODE":36.8012,"ARG_OF_PERICENTER":89.2163,"MEAN_ANOMALY":270.8992,"EPHEMERIS_TYPE":0,"CLASSIFICATION_TYPE":"U","NORAD_CAT_ID":52623,"ELEMENT_SET_NO":999,"REV_AT_EPOCH":20669,"BSTAR":0.00017168569,"MEAN_MOTION_DOT":2.445e-5,"MEAN_MOTION_DDOT":0},{"OBJECT_NAME":"STARLINK-3988","OBJECT_ID":"2022-052AD","EPOCH":"2026-02-09T05:50:31.748064","MEAN_MOTION":15.0883799,"ECCENTRICITY":0.00020399,"INCLINATION":53.2187,"RA_OF_ASC_NODE":36.8204,"ARG_OF_PERICENTER":94.4834,"MEAN_ANOMALY":265.6391,"EPHEMERIS_TYPE":0,"CLASSIFICATION_TYPE":"U","NORAD_CAT_ID":52625,"ELEMENT_SET_NO":999,"REV_AT_EPOCH":20669,"BSTAR":1.0807704e-5,"MEAN_MOTION_DOT":-1.16e-6,"MEAN_MOTION_DDOT":0},{"OBJECT_NAME":"STARLINK-3990","OBJECT_ID":"2022-052AE","EPOCH":"2026-02-09T06:06:25.310304","MEAN_MOTION":15.08838378,"ECCENTRICITY":0.00014075,"INCLINATION":53.2187,"RA_OF_ASC_NODE":36.7686,"ARG_OF_PERICENTER":91.2085,"MEAN_ANOMALY":268.9069,"EPHEMERIS_TYPE":0,"CLASSIFICATION_TYPE":"U","NORAD_CAT_ID":52626,"ELEMENT_SET_NO":999,"REV_AT_EPOCH":20669,"BSTAR":-0.00014380112,"MEAN_MOTION_DOT":-2.576e-5,"MEAN_MOTION_DDOT":0},{"OBJECT_NAME":"STARLINK-3992","OBJECT_ID":"2022-052AF","EPOCH":"2026-02-09T05:34:37.581888","MEAN_MOTION":15.08838234,"ECCENTRICITY":0.0001393,"INCLINATION":53.2182,"RA_OF_ASC_NODE":36.8728,"ARG_OF_PERICENTER":93.1953,"MEAN_ANOMALY":266.9199,"EPHEMERIS_TYPE":0,"CLASSIFICATION_TYPE":"U","NORAD_CAT_ID":52627,"ELEMENT_SET_NO":999,"REV_AT_EPOCH":20670,"BSTAR":8.2948355e-5,"MEAN_MOTION_DOT":1.032e-5,"MEAN_MOTION_DDOT":0},{"OBJECT_NAME":"STARLINK-4001","OBJECT_ID":"2022-052AG","EPOCH":"2026-02-09T06:44:10.629312","MEAN_MOTION":15.08840696,"ECCENTRICITY":0.00016037,"INCLINATION":53.2173,"RA_OF_ASC_NODE":51.6515,"ARG_OF_PERICENTER":91.8566,"MEAN_ANOMALY":268.261,"EPHEMERIS_TYPE":0,"CLASSIFICATION_TYPE":"U","NORAD_CAT_ID":52628,"ELEMENT_SET_NO":999,"REV_AT_EPOCH":20649,"BSTAR":4.3290965e-5,"MEAN_MOTION_DOT":4.01e-6,"MEAN_MOTION_DDOT":0},{"OBJECT_NAME":"STARLINK-4022","OBJECT_ID":"2022-052AH","EPOCH":"2026-02-09T06:59:27.023136","MEAN_MOTION":15.08819361,"ECCENTRICITY":0.00015789,"INCLINATION":53.2177,"RA_OF_ASC_NODE":36.5687,"ARG_OF_PERICENTER":123.1046,"MEAN_ANOMALY":237.0098,"EPHEMERIS_TYPE":0,"CLASSIFICATION_TYPE":"U","NORAD_CAT_ID":52629,"ELEMENT_SET_NO":999,"REV_AT_EPOCH":20670,"BSTAR":-3.1604874e-5,"MEAN_MOTION_DOT":-7.91e-6,"MEAN_MOTION_DDOT":0},{"OBJECT_NAME":"STARLINK-3989","OBJECT_ID":"2022-052AJ","EPOCH":"2026-02-09T05:47:16.668096","MEAN_MOTION":15.07240252,"ECCENTRICITY":0.00117983,"INCLINATION":53.2183,"RA_OF_ASC_NODE":36.8459,"ARG_OF_PERICENTER":103.2305,"MEAN_ANOMALY":257.0003,"EPHEMERIS_TYPE":0,"CLASSIFICATION_TYPE":"U","NORAD_CAT_ID":52630,"ELEMENT_SET_NO":999,"REV_AT_EPOCH":20669,"BSTAR":-0.013576235,"MEAN_MOTION_DOT":-0.00201789,"MEAN_MOTION_DDOT":0},{"OBJECT_NAME":"STARLINK-3794","OBJECT_ID":"2022-052AK","EPOCH":"2026-02-09T07:00:48.590784","MEAN_MOTION":15.08846265,"ECCENTRICITY":0.0001549,"INCLINATION":53.2188,"RA_OF_ASC_NODE":36.615,"ARG_OF_PERICENTER":71.0509,"MEAN_ANOMALY":289.0651,"EPHEMERIS_TYPE":0,"CLASSIFICATION_TYPE":"U","NORAD_CAT_ID":52631,"ELEMENT_SET_NO":999,"REV_AT_EPOCH":20671,"BSTAR":-0.00027899379,"MEAN_MOTION_DOT":-4.726e-5,"MEAN_MOTION_DDOT":0},{"OBJECT_NAME":"STARLINK-3995","OBJECT_ID":"2022-052AL","EPOCH":"2026-02-09T05:39:55.258272","MEAN_MOTION":15.0884024,"ECCENTRICITY":0.00013486,"INCLINATION":53.2179,"RA_OF_ASC_NODE":36.8548,"ARG_OF_PERICENTER":86.1952,"MEAN_ANOMALY":273.9195,"EPHEMERIS_TYPE":0,"CLASSIFICATION_TYPE":"U","NORAD_CAT_ID":52632,"ELEMENT_SET_NO":999,"REV_AT_EPOCH":20670,"BSTAR":9.9618495e-5,"MEAN_MOTION_DOT":1.298e-5,"MEAN_MOTION_DDOT":0}]
